{
  "norad_id": 53002,
  "name": "STARLINK-4121",
  "history": [
    {
      "epoch": "2026-03-28T18:18:30.193344Z",
      "apogee_km": 540.8137079553962,
      "perigee_km": 538.6961412372766,
      "latitude_deg": -4.129158986880898e-05,
      "longitude_deg": -92.3065709113119,
      "height_km": 540.6412937017768,
      "semi_major_axis_km": 6917.891924596336,
      "eccentricity": 0.00015305,
      "inclination_deg": 53.2181,
      "raan_deg": 8.4979,
      "arg_perigee_deg": 89.5033,
      "mean_anomaly_deg": 270.6134,
      "mean_motion_rev_day": 15.08836226
    },
    {
      "epoch": "2026-03-29T02:15:26.194752Z",
      "apogee_km": 540.8000738795226,
      "perigee_km": 538.7150204630052,
      "latitude_deg": 3.610104993564043e-05,
      "longitude_deg": 146.6456981028989,
      "height_km": 540.5959238035991,
      "semi_major_axis_km": 6917.894547171263,
      "eccentricity": 0.0001507,
      "inclination_deg": 53.218,
      "raan_deg": 7.0099,
      "arg_perigee_deg": 86.8556,
      "mean_anomaly_deg": 273.2609,
      "mean_motion_rev_day": 15.08835368
    },
    {
      "epoch": "2026-03-30T03:41:36.017376Z",
      "apogee_km": 540.8798400530331,
      "perigee_km": 538.5886410981539,
      "latitude_deg": -3.008758175528747e-05,
      "longitude_deg": 119.30329998849136,
      "height_km": 540.4450534321203,
      "semi_major_axis_km": 6917.871240575593,
      "eccentricity": 0.0001656,
      "inclination_deg": 53.2177,
      "raan_deg": 2.2531,
      "arg_perigee_deg": 80.7296,
      "mean_anomaly_deg": 279.3883,
      "mean_motion_rev_day": 15.08842993
    },
    {
      "epoch": "2026-03-30T11:38:31.273152Z",
      "apogee_km": 540.8673579029273,
      "perigee_km": 538.5724280572504,
      "latitude_deg": 1.687983542937463e-05,
      "longitude_deg": -1.7398378846897424,
      "height_km": 540.4343880452338,
      "semi_major_axis_km": 6917.856892980089,
      "eccentricity": 0.00016587,
      "inclination_deg": 53.2179,
      "raan_deg": 0.7666,
      "arg_perigee_deg": 80.9305,
      "mean_anomaly_deg": 279.1875,
      "mean_motion_rev_day": 15.08847687
    },
    {
      "epoch": "2026-03-30T21:10:50.480544Z",
      "apogee_km": 540.8878209771019,
      "perigee_km": 538.6013227599678,
      "latitude_deg": -2.242834444020809e-05,
      "longitude_deg": -146.99593665528792,
      "height_km": 540.5838001714444,
      "semi_major_axis_km": 6917.881571868535,
      "eccentricity": 0.00016526,
      "inclination_deg": 53.2187,
      "raan_deg": 358.9823,
      "arg_perigee_deg": 87.1817,
      "mean_anomaly_deg": 272.9364,
      "mean_motion_rev_day": 15.08839613
    },
    {
      "epoch": "2026-03-31T21:01:38.122752Z",
      "apogee_km": 540.8519658131345,
      "perigee_km": 538.6797443166442,
      "latitude_deg": 4.3550440536767525e-06,
      "longitude_deg": -150.13516829493668,
      "height_km": 540.6300860070376,
      "semi_major_axis_km": 6917.902855064889,
      "eccentricity": 0.000157,
      "inclination_deg": 53.2167,
      "raan_deg": 354.5209,
      "arg_perigee_deg": 88.3589,
      "mean_anomaly_deg": 271.7583,
      "mean_motion_rev_day": 15.0883265
    },
    {
      "epoch": "2026-04-01T20:52:25.402944Z",
      "apogee_km": 540.7467517268778,
      "perigee_km": 538.8097354586716,
      "latitude_deg": -3.689038812468847e-05,
      "longitude_deg": -153.27373810396796,
      "height_km": 540.7888655315551,
      "semi_major_axis_km": 6917.9152435927745,
      "eccentricity": 0.00014,
      "inclination_deg": 53.2179,
      "raan_deg": 350.0587,
      "arg_perigee_deg": 96.8137,
      "mean_anomaly_deg": 263.3014,
      "mean_motion_rev_day": 15.08828597
    },
    {
      "epoch": "2026-04-02T15:57:02.538144Z",
      "apogee_km": 540.8013117064065,
      "perigee_km": 538.6692234735356,
      "latitude_deg": 7.420580821621906e-05,
      "longitude_deg": -83.77574869418915,
      "height_km": 540.7256630010655,
      "semi_major_axis_km": 6917.872267589971,
      "eccentricity": 0.0001541,
      "inclination_deg": 53.22,
      "raan_deg": 346.4948,
      "arg_perigee_deg": 95.0948,
      "mean_anomaly_deg": 265.0221,
      "mean_motion_rev_day": 15.08842657
    }
  ]
}